start=new Date('2022-01-08T00:00:00.000Z').valueOf();
sats=[{"ELEMENT_SET_NO":"999","RCS_SIZE":"LARGE","REV_AT_EPOCH":"368","MEAN_ANOMALY":"120.7876","RA_OF_ASC_NODE":"161.3973","SEMIMAJOR_AXIS":"6737.755","BSTAR":"-0.00000438980000","NORAD_CAT_ID":"49142","TIME_SYSTEM":"UTC","MEAN_MOTION_DDOT":"0.0000000000000","LAUNCH_DATE":"2021-09-14","PERIOD":"91.734","CENTER_NAME":"EARTH","APOAPSIS":"361.846","CLASSIFICATION_TYPE":"U","EPOCH":"2022-01-07T22:00:00.999936","OBJECT_NAME":"STARLINK-3042","COUNTRY_CODE":"US","ECCENTRICITY":"0.00033050","REF_FRAME":"TEME","OBJECT_TYPE":"PAYLOAD","DECAY_DATE":null,"ARG_OF_PERICENTER":"277.4721","MEAN_MOTION_DOT":"-0.00000736","PERIAPSIS":"357.393","TLE_LINE2":"2 49142  69.9997 161.3973 0003305 277.4721 120.7876 15.69748129  3682","TLE_LINE1":"1 49142U 21082N   22007.91667824 -.00000736  00000-0 -43898-5 0  9992","FILE":"3266804","GP_ID":"193426937","INCLINATION":"69.9997","EPHEMERIS_TYPE":"0","SITE":"AFWTR","OBJECT_ID":"2021-082N","MEAN_ELEMENT_THEORY":"SGP4","MEAN_MOTION":"15.69748129"},{"MEAN_ANOMALY":"116.3260","RA_OF_ASC_NODE":"161.3935","REV_AT_EPOCH":"368","RCS_SIZE":"LARGE","ELEMENT_SET_NO":"999","TIME_SYSTEM":"UTC","MEAN_MOTION_DDOT":"0.0000000000000","NORAD_CAT_ID":"49143","SEMIMAJOR_AXIS":"6737.694","BSTAR":"0.00023580000000","EPOCH":"2022-01-07T22:00:00.999936","APOAPSIS":"362.029","CLASSIFICATION_TYPE":"U","CENTER_NAME":"EARTH","LAUNCH_DATE":"2021-09-14","PERIOD":"91.733","COUNTRY_CODE":"US","ECCENTRICITY":"0.00036670","REF_FRAME":"TEME","OBJECT_NAME":"STARLINK-3109","ARG_OF_PERICENTER":"284.2437","DECAY_DATE":null,"OBJECT_TYPE":"PAYLOAD","PERIAPSIS":"357.088","TLE_LINE2":"2 49143  69.9977 161.3935 0003667 284.2437 116.3260 15.69769400  3683","MEAN_MOTION_DOT":"0.00028056","INCLINATION":"69.9977","GP_ID":"193427187","FILE":"3266804","TLE_LINE1":"1 49143U 21082P   22007.91667824  .00028056  00000-0  23580-3 0  9990","MEAN_MOTION":"15.69769400","MEAN_ELEMENT_THEORY":"SGP4","OBJECT_ID":"2021-082P","SITE":"AFWTR","EPHEMERIS_TYPE":"0"},{"OBJECT_NAME":"STARLINK-3100","COUNTRY_CODE":"US","ECCENTRICITY":"0.00030600","REF_FRAME":"TEME","LAUNCH_DATE":"2021-09-14","PERIOD":"96.104","CENTER_NAME":"EARTH","CLASSIFICATION_TYPE":"U","APOAPSIS":"574.049","EPOCH":"2022-01-08T02:00:01.999872","SEMIMAJOR_AXIS":"6950.057","BSTAR":"-0.00606660000000","NORAD_CAT_ID":"49144","MEAN_MOTION_DDOT":"0.0000000000000","TIME_SYSTEM":"UTC","ELEMENT_SET_NO":"999","RCS_SIZE":"LARGE","REV_AT_EPOCH":"1805","RA_OF_ASC_NODE":"170.9697","MEAN_ANOMALY":"309.6084","EPHEMERIS_TYPE":"0","SITE":"AFWTR","OBJECT_ID":"2021-082Q","MEAN_ELEMENT_THEORY":"SGP4","MEAN_MOTION":"14.98373844","TLE_LINE1":"1 49144U 21082Q   22008.08335648 -.00071824  00000-0 -60666-2 0  9994","FILE":"3266775","GP_ID":"193402915","INCLINATION":"69.9995","MEAN_MOTION_DOT":"-0.00071824","TLE_LINE2":"2 49144  69.9995 170.9697 0003060 270.0807 309.6084 14.98373844 18058","PERIAPSIS":"569.796","OBJECT_TYPE":"PAYLOAD","DECAY_DATE":null,"ARG_OF_PERICENTER":"270.0807"},{"PERIAPSIS":"357.217","TLE_LINE2":"2 49145  70.0004 161.3753 0003612 282.2671 126.8197 15.69737393  3686","MEAN_MOTION_DOT":"0.00027151","DECAY_DATE":null,"OBJECT_TYPE":"PAYLOAD","ARG_OF_PERICENTER":"282.2671","OBJECT_ID":"2021-082R","SITE":"AFWTR","EPHEMERIS_TYPE":"0","MEAN_MOTION":"15.69737393","MEAN_ELEMENT_THEORY":"SGP4","GP_ID":"193428175","FILE":"3266804","TLE_LINE1":"1 49145U 21082R   22007.91667824  .00027151  00000-0  22858-3 0  9994","INCLINATION":"70.0004","TIME_SYSTEM":"UTC","MEAN_MOTION_DDOT":"0.0000000000000","NORAD_CAT_ID":"49145","SEMIMAJOR_AXIS":"6737.785","BSTAR":"0.00022858000000","ELEMENT_SET_NO":"999","MEAN_ANOMALY":"126.8197","RA_OF_ASC_NODE":"161.3753","REV_AT_EPOCH":"368","RCS_SIZE":"LARGE","OBJECT_NAME":"STARLINK-3119","ECCENTRICITY":"0.00036120","COUNTRY_CODE":"US","REF_FRAME":"TEME","CENTER_NAME":"EARTH","PERIOD":"91.735","LAUNCH_DATE":"2021-09-14","EPOCH":"2022-01-07T22:00:00.999936","APOAPSIS":"362.084","CLASSIFICATION_TYPE":"U"},{"MEAN_MOTION_DOT":"0.00004807","PERIAPSIS":"357.011","TLE_LINE2":"2 49146  69.9995 161.3823 0003725 280.2903 126.6356 15.69782767  3682","ARG_OF_PERICENTER":"280.2903","OBJECT_TYPE":"PAYLOAD","DECAY_DATE":null,"MEAN_MOTION":"15.69782767","MEAN_ELEMENT_THEORY":"SGP4","SITE":"AFWTR","OBJECT_ID":"2021-082S","EPHEMERIS_TYPE":"0","INCLINATION":"69.9995","FILE":"3266804","GP_ID":"193426438","TLE_LINE1":"1 49146U 21082S   22007.91667824  .00004807  00000-0  41961-4 0  9995","MEAN_MOTION_DDOT":"0.0000000000000","TIME_SYSTEM":"UTC","BSTAR":"0.00004196100000","SEMIMAJOR_AXIS":"6737.656","NORAD_CAT_ID":"49146","REV_AT_EPOCH":"368","RA_OF_ASC_NODE":"161.3823","MEAN_ANOMALY":"126.6356","RCS_SIZE":"LARGE","ELEMENT_SET_NO":"999","ECCENTRICITY":"0.00037250","COUNTRY_CODE":"US","REF_FRAME":"TEME","OBJECT_NAME":"STARLINK-3116","EPOCH":"2022-01-07T22:00:00.999936","CLASSIFICATION_TYPE":"U","APOAPSIS":"362.030","CENTER_NAME":"EARTH","PERIOD":"91.732","LAUNCH_DATE":"2021-09-14"},{"CENTER_NAME":"EARTH","LAUNCH_DATE":"2021-09-14","PERIOD":"91.735","EPOCH":"2022-01-07T22:00:00.999936","APOAPSIS":"362.084","CLASSIFICATION_TYPE":"U","OBJECT_NAME":"STARLINK-3071","COUNTRY_CODE":"US","ECCENTRICITY":"0.00035840","REF_FRAME":"TEME","ELEMENT_SET_NO":"999","REV_AT_EPOCH":"368","MEAN_ANOMALY":"119.2993","RA_OF_ASC_NODE":"161.3838","RCS_SIZE":"LARGE","MEAN_MOTION_DDOT":"0.0000000000000","TIME_SYSTEM":"UTC","SEMIMAJOR_AXIS":"6737.804","BSTAR":"0.00024604000000","NORAD_CAT_ID":"49147","FILE":"3266804","GP_ID":"193426688","TLE_LINE1":"1 49147U 21082T   22007.91667824  .00029240  00000-0  24604-3 0  9998","INCLINATION":"70.0002","SITE":"AFWTR","OBJECT_ID":"2021-082T","EPHEMERIS_TYPE":"0","MEAN_MOTION":"15.69730756","MEAN_ELEMENT_THEORY":"SGP4","OBJECT_TYPE":"PAYLOAD","DECAY_DATE":null,"ARG_OF_PERICENTER":"283.4245","MEAN_MOTION_DOT":"0.00029240","TLE_LINE2":"2 49147  70.0002 161.3838 0003584 283.4245 119.2993 15.69730756  3684","PERIAPSIS":"357.255"},{"NORAD_CAT_ID":"49148","SEMIMAJOR_AXIS":"6737.755","BSTAR":"-0.00000613320000","TIME_SYSTEM":"UTC","MEAN_MOTION_DDOT":"0.0000000000000","ELEMENT_SET_NO":"999","RCS_SIZE":"LARGE","RA_OF_ASC_NODE":"161.3798","MEAN_ANOMALY":"135.5373","REV_AT_EPOCH":"368","OBJECT_NAME":"STARLINK-3048","COUNTRY_CODE":"US","REF_FRAME":"TEME","ECCENTRICITY":"0.00033170","LAUNCH_DATE":"2021-09-14","PERIOD":"91.734","CENTER_NAME":"EARTH","APOAPSIS":"361.854","CLASSIFICATION_TYPE":"U","EPOCH":"2022-01-07T22:00:00.999936","PERIAPSIS":"357.385","TLE_LINE2":"2 49148  69.9997 161.3798 0003317 277.6086 135.5373 15.69748155  3687","MEAN_MOTION_DOT":"-0.00000944","DECAY_DATE":null,"OBJECT_TYPE":"PAYLOAD","ARG_OF_PERICENTER":"277.6086","EPHEMERIS_TYPE":"0","OBJECT_ID":"2021-082U","SITE":"AFWTR","MEAN_ELEMENT_THEORY":"SGP4","MEAN_MOTION":"15.69748155","TLE_LINE1":"1 49148U 21082U   22007.91667824 -.00000944  00000-0 -61332-5 0  9992","GP_ID":"193427936","FILE":"3266804","INCLINATION":"69.9997"},{"FILE":"3266804","GP_ID":"193427676","TLE_LINE1":"1 49149U 21082V   22007.91667824  .00024674  00000-0  20692-2 0  9998","INCLINATION":"69.9973","SITE":"AFWTR","OBJECT_ID":"2021-082V","EPHEMERIS_TYPE":"0","MEAN_MOTION":"14.98314545","MEAN_ELEMENT_THEORY":"SGP4","OBJECT_TYPE":"PAYLOAD","DECAY_DATE":null,"ARG_OF_PERICENTER":"284.9600","MEAN_MOTION_DOT":"0.00024674","TLE_LINE2":"2 49149  69.9973 171.3954 0003460 284.9600 141.5503 14.98314545  3583","PERIAPSIS":"569.701","CENTER_NAME":"EARTH","PERIOD":"96.108","LAUNCH_DATE":"2021-09-14","EPOCH":"2022-01-07T22:00:00.999936","CLASSIFICATION_TYPE":"U","APOAPSIS":"574.510","OBJECT_NAME":"STARLINK-3053","COUNTRY_CODE":"US","ECCENTRICITY":"0.00034600","REF_FRAME":"TEME","ELEMENT_SET_NO":"999","REV_AT_EPOCH":"358","MEAN_ANOMALY":"141.5503","RA_OF_ASC_NODE":"171.3954","RCS_SIZE":"LARGE","MEAN_MOTION_DDOT":"0.0000000000000","TIME_SYSTEM":"UTC","SEMIMAJOR_AXIS":"6950.241","BSTAR":"0.00206920000000","NORAD_CAT_ID":"49149"},{"CLASSIFICATION_TYPE":"U","APOAPSIS":"574.226","EPOCH":"2022-01-07T22:00:00.999936","PERIOD":"96.107","LAUNCH_DATE":"2021-09-14","CENTER_NAME":"EARTH","COUNTRY_CODE":"US","REF_FRAME":"TEME","ECCENTRICITY":"0.00031110","OBJECT_NAME":"STARLINK-3104","RCS_SIZE":"LARGE","REV_AT_EPOCH":"358","RA_OF_ASC_NODE":"171.3907","MEAN_ANOMALY":"172.3447","ELEMENT_SET_NO":"999","SEMIMAJOR_AXIS":"6950.199","BSTAR":"0.00037979000000","NORAD_CAT_ID":"49150","TIME_SYSTEM":"UTC","MEAN_MOTION_DDOT":"0.0000000000000","INCLINATION":"69.9999","TLE_LINE1":"1 49150U 21082W   22007.91667824  .00004441  00000-0  37979-3 0  9997","FILE":"3266804","GP_ID":"193426938","MEAN_ELEMENT_THEORY":"SGP4","MEAN_MOTION":"14.98327948","EPHEMERIS_TYPE":"0","SITE":"AFWTR","OBJECT_ID":"2021-082W","ARG_OF_PERICENTER":"279.9887","OBJECT_TYPE":"PAYLOAD","DECAY_DATE":null,"MEAN_MOTION_DOT":"0.00004441","PERIAPSIS":"569.902","TLE_LINE2":"2 49150  69.9999 171.3907 0003111 279.9887 172.3447 14.98327948  3585"},{"MEAN_MOTION":"15.69748217","MEAN_ELEMENT_THEORY":"SGP4","OBJECT_ID":"2021-082X","SITE":"AFWTR","EPHEMERIS_TYPE":"0","INCLINATION":"69.9997","GP_ID":"193427188","FILE":"3266804","TLE_LINE1":"1 49151U 21082X   22007.91667824 -.00001107  00000-0 -74991-5 0  9993","PERIAPSIS":"357.204","TLE_LINE2":"2 49151  69.9997 161.3773 0003585 276.1963 139.0762 15.69748217  3689","MEAN_MOTION_DOT":"-0.00001107","ARG_OF_PERICENTER":"276.1963","DECAY_DATE":null,"OBJECT_TYPE":"PAYLOAD","REF_FRAME":"TEME","COUNTRY_CODE":"US","ECCENTRICITY":"0.00035850","OBJECT_NAME":"STARLINK-3102","EPOCH":"2022-01-07T22:00:00.999936","APOAPSIS":"362.035","CLASSIFICATION_TYPE":"U","CENTER_NAME":"EARTH","PERIOD":"91.734","LAUNCH_DATE":"2021-09-14","TIME_SYSTEM":"UTC","MEAN_MOTION_DDOT":"0.0000000000000","NORAD_CAT_ID":"49151","BSTAR":"-0.00000749910000","SEMIMAJOR_AXIS":"6737.754","MEAN_ANOMALY":"139.0762","RA_OF_ASC_NODE":"161.3773","REV_AT_EPOCH":"368","RCS_SIZE":"LARGE","ELEMENT_SET_NO":"999"}];
